     2.11           G: GLONASS NAV DATA                     RINEX VERSION / TYPE
teqc  2018Mar15                         20190117 00:33:38UTCPGM / RUN BY / DATE
Linux 2.6.32-573.12.1.x86_64|x86_64|gcc -static|Linux 64|=+ COMMENT
  2019     1    16   -1.862645149231D-09                    CORR TO SYSTEM TIME
                                                            END OF HEADER
19 19  1 15 23 45  0.0-6.205216050148D-05 0.000000000000D+00 8.637000000000D+04
    1.136812890625D+04-1.356960296631D+00 9.313225746155D-10 0.000000000000D+00
   -9.074902343750D+01 2.820952415466D+00-9.313225746155D-10 3.000000000000D+00
    2.284184716797D+04 6.866016387939D-01-1.862645149231D-09 0.000000000000D+00
 5 19  1 15 23 45  0.0 2.004764974117D-05 9.094947017729D-13 8.637000000000D+04
    1.684419482422D+04 1.468711853027D+00-9.313225746155D-10 0.000000000000D+00
    9.418491699219D+03 1.755634307861D+00 0.000000000000D+00 1.000000000000D+00
   -1.668879882812D+04 2.470605850220D+00 1.862645149231D-09 0.000000000000D+00
20 19  1 15 23 45  0.0-3.657285124063D-04-9.094947017729D-13 8.637000000000D+04
    1.407470654297D+04-8.672695159912D-01 1.862645149231D-09 0.000000000000D+00
   -1.766852099609D+04 1.382951736450D+00-2.793967723846D-09 2.000000000000D+00
    1.181670947266D+04 3.108508110046D+00 0.000000000000D+00 0.000000000000D+00
 4 19  1 15 23 45  0.0 2.914657816291D-04 9.094947017729D-13 8.637000000000D+04
    1.575602343750D+04 2.389936447144D-01-9.313225746155D-10 0.000000000000D+00
    2.002684033203D+04 5.291938781738D-02 0.000000000000D+00 6.000000000000D+00
   -1.345101074219D+03 3.560874938965D+00 0.000000000000D+00 0.000000000000D+00
 9 19  1 15 23 45  0.0 4.921201616526D-05 1.818989403546D-12 8.637000000000D+04
    1.962640576172D+04 1.845367431641D+00 1.862645149231D-09 0.000000000000D+00
   -8.838898925781D+03-3.111820220947D-01-2.793967723846D-09-2.000000000000D+00
    1.365068994141D+04-2.863002777100D+00 0.000000000000D+00 0.000000000000D+00
15 19  1 15 23 45  0.0 9.931530803442D-05-0.000000000000D+00 8.637000000000D+04
    1.429981298828D+04-2.689517021179D+00-9.313225746155D-10 0.000000000000D+00
    7.701094238281D+03 2.087373733521D-01 0.000000000000D+00 0.000000000000D+00
   -1.965185058594D+04-1.872411727905D+00 1.862645149231D-09 0.000000000000D+00
16 19  1 15 23 45  0.0-1.166295260191D-05 0.000000000000D+00 8.637000000000D+04
    2.493992236328D+04-7.809953689575D-01-0.000000000000D+00 0.000000000000D+00
   -5.451958007812D+02-5.621719360352D-02-9.313225746155D-10-1.000000000000D+00
   -5.644298339844D+03-3.447957038879D+00 1.862645149231D-09 0.000000000000D+00
16 19  1 16  0 15  0.0-1.166202127934D-05 0.000000000000D+00 0.000000000000D+00
    2.281263378906D+04-1.556475639343D+00-9.313225746155D-10 0.000000000000D+00
   -3.816079101562D+02 2.711076736450D-01-0.000000000000D+00-1.000000000000D+00
   -1.155455468750D+04-3.076678276062D+00 1.862645149231D-09 0.000000000000D+00
 5 19  1 16  0 15  0.0 2.004858106375D-05 9.094947017729D-13 0.000000000000D+00
    1.931065625000D+04 1.226278305054D+00-9.313225746155D-10 0.000000000000D+00
    1.193171679688D+04 1.033383369446D+00 0.000000000000D+00 1.000000000000D+00
   -1.165443652344D+04 3.086814880371D+00 9.313225746155D-10 0.000000000000D+00
 9 19  1 16  0 15  0.0 4.921946674585D-05 1.818989403546D-12 0.000000000000D+00
    2.223766699219D+04 1.038020133972D+00 0.000000000000D+00 0.000000000000D+00
   -9.498682617188D+03-3.826904296875D-01-2.793967723846D-09-2.000000000000D+00
    8.034924316406D+03-3.336176872253D+00 9.313225746155D-10 0.000000000000D+00
 4 19  1 16  0 15  0.0 2.914685755968D-04 9.094947017729D-13 0.000000000000D+00
    1.566529882812D+04-3.679819107056D-01-9.313225746155D-10 0.000000000000D+00
    1.950648535156D+04-6.014909744263D-01 0.000000000000D+00 6.000000000000D+00
    5.033697753906D+03 3.480707168579D+00-0.000000000000D+00 0.000000000000D+00
15 19  1 16  0 15  0.0 9.931530803442D-05-0.000000000000D+00 0.000000000000D+00
    9.161376953125D+03-2.969931602478D+00-1.862645149231D-09 0.000000000000D+00
    8.500592285156D+03 6.873807907104D-01 9.313225746155D-10 0.000000000000D+00
   -2.221767480469D+04-9.599142074585D-01 1.862645149231D-09 0.000000000000D+00
19 19  1 16  0 15  0.0-6.205122917891D-05 0.000000000000D+00 0.000000000000D+00
    9.293904296875D+03-9.265518188477D-01 9.313225746155D-10 0.000000000000D+00
    5.226401367188D+03 3.038250923157D+00-9.313225746155D-10 3.000000000000D+00
    2.317959619141D+04-3.137598037720D-01-1.862645149231D-09 0.000000000000D+00
20 19  1 16  0 15  0.0-3.657313063741D-04-9.094947017729D-13 0.000000000000D+00
    1.249259863281D+04-8.475561141968D-01 1.862645149231D-09 0.000000000000D+00
   -1.446341015625D+04 2.159260749817D+00-2.793967723846D-09 2.000000000000D+00
    1.688212207031D+04 2.483226776123D+00-0.000000000000D+00 0.000000000000D+00
 6 19  1 16  0 15  0.0 1.472812145948D-04 9.094947017729D-13 0.000000000000D+00
    1.124379980469D+04 2.203279495239D+00-9.313225746155D-10 0.000000000000D+00
   -4.201071777344D+03 2.150025367737D+00 0.000000000000D+00-4.000000000000D+00
   -2.252684814453D+04 6.966886520386D-01 2.793967723846D-09 0.000000000000D+00
10 19  1 16  0 15  0.0 3.973394632339D-05 0.000000000000D+00 1.080000000000D+03
    9.692123046875D+03 2.690176963806D+00 1.862645149231D-09 0.000000000000D+00
   -1.195833544922D+04-7.401866912842D-01-2.793967723846D-09-7.000000000000D+00
    2.029567138672D+04-1.725873947144D+00-9.313225746155D-10 0.000000000000D+00
 5 19  1 16  0 45  0.0 2.005044370890D-05 9.094947017729D-13 1.800000000000D+03
    2.110185644531D+04 7.237873077393D-01-9.313225746155D-10 0.000000000000D+00
    1.316040625000D+04 3.470001220703D-01 9.313225746155D-10 1.000000000000D+00
   -5.719768066406D+03 3.464474678040D+00 0.000000000000D+00 0.000000000000D+00
 9 19  1 16  0 45  0.0 4.922226071358D-05 1.818989403546D-12 1.800000000000D+03
    2.333274951172D+04 1.799945831299D-01 0.000000000000D+00 0.000000000000D+00
   -1.006958593750D+04-2.107152938843D-01-1.862645149231D-09-2.000000000000D+00
    1.795960937500D+03-3.550848960876D+00 9.313225746155D-10 0.000000000000D+00
16 19  1 16  0 45  0.0-1.166015863419D-05 0.000000000000D+00 1.800000000000D+03
    1.945777099609D+04-2.131101608276D+00-9.313225746155D-10 0.000000000000D+00
    5.286020507812D+02 7.603893280029D-01 0.000000000000D+00-1.000000000000D+00
   -1.657820800781D+04-2.469111442566D+00 1.862645149231D-09 0.000000000000D+00
 4 19  1 16  0 45  0.0 2.914713695645D-04 9.094947017729D-13 1.800000000000D+03
    1.435745605469D+04-1.097187995911D+00-0.000000000000D+00 0.000000000000D+00
    1.799004687500D+04-1.042896270752D+00 0.000000000000D+00 6.000000000000D+00
    1.102376904297D+04 3.131776809692D+00-9.313225746155D-10 0.000000000000D+00
 6 19  1 16  0 45  0.0 1.472830772400D-04 9.094947017729D-13 1.800000000000D+03
    1.529999267578D+04 2.258476257324D+00-9.313225746155D-10 0.000000000000D+00
   -7.711938476562D+02 1.639301300049D+00 0.000000000000D+00-4.000000000000D+00
   -2.042009326172D+04 1.628948211670D+00 2.793967723846D-09 0.000000000000D+00
19 19  1 16  0 45  0.0-6.205029785633D-05 0.000000000000D+00 1.800000000000D+03
    8.076485839844D+03-4.232559204102D-01 0.000000000000D+00 0.000000000000D+00
    1.066166210938D+04 2.948314666748D+00-0.000000000000D+00 3.000000000000D+00
    2.172685498047D+04-1.289944648743D+00-1.862645149231D-09 0.000000000000D+00
10 19  1 16  0 45  0.0 3.973580896854D-05 0.000000000000D+00 1.800000000000D+03
    1.399793212891D+04 2.060947418213D+00 9.313225746155D-10 0.000000000000D+00
   -1.350173974609D+04-9.382896423340D-01-2.793967723846D-09-7.000000000000D+00
    1.644141406250D+04-2.528805732727D+00-0.000000000000D+00 0.000000000000D+00
20 19  1 16  0 45  0.0-3.657331690192D-04-9.094947017729D-13 1.800000000000D+03
    1.116520117188D+04-5.930719375610D-01 9.313225746155D-10 0.000000000000D+00
   -9.996369628906D+03 2.767735481262D+00-2.793967723846D-09 2.000000000000D+00
    2.064114697266D+04 1.666469573975D+00-9.313225746155D-10 0.000000000000D+00
15 19  1 16  0 45  0.0 9.931530803442D-05-0.000000000000D+00 1.830000000000D+03
    3.792395019531D+03-2.944711685181D+00-9.313225746155D-10 0.000000000000D+00
    1.017078710938D+04 1.157860755920D+00 1.862645149231D-09 0.000000000000D+00
   -2.306267138672D+04 2.717113494873D-02 1.862645149231D-09 0.000000000000D+00
 5 19  1 16  1 15  0.0 2.005230635405D-05 9.094947017729D-13 3.600000000000D+03
    2.179161474609D+04 1.473331451416D-02-9.313225746155D-10 0.000000000000D+00
    1.326488378906D+04-2.003669738770D-01 9.313225746155D-10 1.000000000000D+00
    6.566845703125D+02 3.574516296387D+00-0.000000000000D+00 0.000000000000D+00
 9 19  1 16  1 15  0.0 4.922505468130D-05 1.818989403546D-12 3.600000000000D+03
    2.292459228516D+04-6.135549545288D-01-0.000000000000D+00 0.000000000000D+00
   -1.011772998047D+04 1.923475265503D-01-9.313225746155D-10-2.000000000000D+00
   -4.582358398438D+03-3.489959716797D+00 1.862645149231D-09 0.000000000000D+00
 4 19  1 16  1 15  0.0 2.914750948548D-04 9.094947017729D-13 3.600000000000D+03
    1.170568164062D+04-1.842391967773D+00-0.000000000000D+00 0.000000000000D+00
    1.590770410156D+04-1.226411819458D+00 0.000000000000D+00 6.000000000000D+00
    1.616267578125D+04 2.541109085083D+00-1.862645149231D-09 0.000000000000D+00
 6 19  1 16  1 15  0.0 1.472849398851D-04 9.094947017729D-13 3.600000000000D+03
    1.920459277344D+04 2.032319068909D+00-9.313225746155D-10 0.000000000000D+00
    1.654337402344D+03 1.052069664001D+00 0.000000000000D+00-4.000000000000D+00
   -1.673828613281D+04 2.435445785522D+00 1.862645149231D-09 0.000000000000D+00
16 19  1 16  1 15  0.0-1.165922731161D-05 0.000000000000D+00 3.600000000000D+03
    1.530100146484D+04-2.439925193787D+00-9.313225746155D-10 0.000000000000D+00
    2.398669433594D+03 1.320580482483D+00 9.313225746155D-10-1.000000000000D+00
   -2.032890332031D+04-1.671277046204D+00 1.862645149231D-09 0.000000000000D+00
